start=new Date('2021-12-09T00:00:00.000Z').valueOf();
sats=[{"MEAN_ELEMENT_THEORY":"SGP4","EPHEMERIS_TYPE":"0","TLE_LINE1":"1 44934U 20001W   21342.69782493  .00001504  00000-0  11984-3 0  9993","ECCENTRICITY":"0.00014140","PERIOD":"95.592","DECAY_DATE":null,"CLASSIFICATION_TYPE":"U","ARG_OF_PERICENTER":"101.0268","MEAN_ANOMALY":"259.0881","MEAN_MOTION":"15.06396662","INCLINATION":"53.0550","FILE":"3235972","REF_FRAME":"TEME","LAUNCH_DATE":"2020-01-07","ELEMENT_SET_NO":"999","GP_ID":"191361775","APOAPSIS":"548.203","OBJECT_NAME":"STARLINK-1071","TLE_LINE2":"2 44934  53.0550  93.7828 0001414 101.0268 259.0881 15.06396662106205","PERIAPSIS":"546.245","EPOCH":"2021-12-08T16:44:52.073952","MEAN_MOTION_DDOT":"0.0000000000000","BSTAR":"0.00011984000000","COUNTRY_CODE":"US","RA_OF_ASC_NODE":"93.7828","CENTER_NAME":"EARTH","RCS_SIZE":"LARGE","NORAD_CAT_ID":"44934","TIME_SYSTEM":"UTC","SITE":"AFETR","REV_AT_EPOCH":"10620","SEMIMAJOR_AXIS":"6925.359","OBJECT_ID":"2020-001W","MEAN_MOTION_DOT":"0.00001504","OBJECT_TYPE":"PAYLOAD"},{"MEAN_MOTION_DOT":"0.00001100","OBJECT_TYPE":"PAYLOAD","OBJECT_ID":"2020-001Z","SEMIMAJOR_AXIS":"6925.368","REV_AT_EPOCH":"10622","SITE":"AFETR","NORAD_CAT_ID":"44937","TIME_SYSTEM":"UTC","RCS_SIZE":"LARGE","CENTER_NAME":"EARTH","RA_OF_ASC_NODE":"93.2914","COUNTRY_CODE":"US","BSTAR":"0.00009271300000","MEAN_MOTION_DDOT":"0.0000000000000","EPOCH":"2021-12-08T19:24:05.650272","PERIAPSIS":"546.365","TLE_LINE2":"2 44937  53.0544  93.2914 0001254  87.4194 272.6939 15.06393553106222","OBJECT_NAME":"STARLINK-1079","APOAPSIS":"548.102","GP_ID":"191362527","ELEMENT_SET_NO":"999","LAUNCH_DATE":"2020-01-07","FILE":"3235972","INCLINATION":"53.0544","REF_FRAME":"TEME","MEAN_MOTION":"15.06393553","MEAN_ANOMALY":"272.6939","ARG_OF_PERICENTER":"87.4194","CLASSIFICATION_TYPE":"U","DECAY_DATE":null,"PERIOD":"95.593","ECCENTRICITY":"0.00012540","TLE_LINE1":"1 44937U 20001Z   21342.80839873  .00001100  00000-0  92713-4 0  9996","EPHEMERIS_TYPE":"0","MEAN_ELEMENT_THEORY":"SGP4"},{"OBJECT_ID":"2020-001AA","SEMIMAJOR_AXIS":"6925.351","OBJECT_TYPE":"PAYLOAD","MEAN_MOTION_DOT":"0.00001147","TIME_SYSTEM":"UTC","NORAD_CAT_ID":"44938","RCS_SIZE":"LARGE","REV_AT_EPOCH":"10622","SITE":"AFETR","CENTER_NAME":"EARTH","EPOCH":"2021-12-08T20:11:51.524448","PERIAPSIS":"546.428","TLE_LINE2":"2 44938  53.0548  93.1359 0001137  94.7004 265.4115 15.06399237106221","RA_OF_ASC_NODE":"93.1359","COUNTRY_CODE":"US","BSTAR":"0.00009587300000","MEAN_MOTION_DDOT":"0.0000000000000","GP_ID":"191363278","OBJECT_NAME":"STARLINK-1082","APOAPSIS":"548.003","MEAN_MOTION":"15.06399237","ARG_OF_PERICENTER":"94.7004","MEAN_ANOMALY":"265.4115","ELEMENT_SET_NO":"999","LAUNCH_DATE":"2020-01-07","REF_FRAME":"TEME","FILE":"3235972","INCLINATION":"53.0548","ECCENTRICITY":"0.00011370","CLASSIFICATION_TYPE":"U","PERIOD":"95.592","DECAY_DATE":null,"TLE_LINE1":"1 44938U 20001AA  21342.84156857  .00001147  00000-0  95873-4 0  9996","EPHEMERIS_TYPE":"0","MEAN_ELEMENT_THEORY":"SGP4"},{"MEAN_MOTION":"15.06393080","ARG_OF_PERICENTER":"90.7365","MEAN_ANOMALY":"269.3783","LAUNCH_DATE":"2020-01-07","ELEMENT_SET_NO":"999","INCLINATION":"53.0540","FILE":"3235972","REF_FRAME":"TEME","GP_ID":"191362026","OBJECT_NAME":"STARLINK-1083","APOAPSIS":"548.193","EPHEMERIS_TYPE":"0","TLE_LINE1":"1 44939U 20001AB  21342.91529616 -.00000052  00000-0  15406-4 0  9991","MEAN_ELEMENT_THEORY":"SGP4","ECCENTRICITY":"0.00013840","CLASSIFICATION_TYPE":"U","DECAY_DATE":null,"PERIOD":"95.593","NORAD_CAT_ID":"44939","TIME_SYSTEM":"UTC","RCS_SIZE":"LARGE","REV_AT_EPOCH":"10623","SITE":"AFETR","OBJECT_ID":"2020-001AB","SEMIMAJOR_AXIS":"6925.370","OBJECT_TYPE":"PAYLOAD","MEAN_MOTION_DOT":"-0.00000052","PERIAPSIS":"546.276","EPOCH":"2021-12-08T21:58:01.588224","TLE_LINE2":"2 44939  53.0540  92.8107 0001384  90.7365 269.3783 15.06393080106236","COUNTRY_CODE":"US","RA_OF_ASC_NODE":"92.8107","MEAN_MOTION_DDOT":"0.0000000000000","BSTAR":"0.00001540600000","CENTER_NAME":"EARTH"},{"TLE_LINE1":"1 44940U 20001AC  21342.79365348  .00000460  00000-0  49771-4 0  9993","EPHEMERIS_TYPE":"0","MEAN_ELEMENT_THEORY":"SGP4","ECCENTRICITY":"0.00012210","CLASSIFICATION_TYPE":"U","DECAY_DATE":null,"PERIOD":"95.592","MEAN_MOTION":"15.06394571","MEAN_ANOMALY":"268.9070","ARG_OF_PERICENTER":"91.2059","LAUNCH_DATE":"2020-01-07","ELEMENT_SET_NO":"999","FILE":"3235972","REF_FRAME":"TEME","INCLINATION":"53.0547","GP_ID":"191362276","OBJECT_NAME":"STARLINK-1091","APOAPSIS":"548.076","PERIAPSIS":"546.385","EPOCH":"2021-12-08T19:02:51.660672","TLE_LINE2":"2 44940  53.0547  93.3497 0001221  91.2059 268.9070 15.06394571106217","COUNTRY_CODE":"US","RA_OF_ASC_NODE":"93.3497","MEAN_MOTION_DDOT":"0.0000000000000","BSTAR":"0.00004977100000","CENTER_NAME":"EARTH","NORAD_CAT_ID":"44940","TIME_SYSTEM":"UTC","RCS_SIZE":"LARGE","REV_AT_EPOCH":"10621","SITE":"AFETR","OBJECT_ID":"2020-001AC","SEMIMAJOR_AXIS":"6925.365","OBJECT_TYPE":"PAYLOAD","MEAN_MOTION_DOT":"0.00000460"},{"ELEMENT_SET_NO":"999","LAUNCH_DATE":"2020-01-07","FILE":"3235972","INCLINATION":"53.0550","REF_FRAME":"TEME","MEAN_MOTION":"15.06393642","ARG_OF_PERICENTER":"83.5500","MEAN_ANOMALY":"276.5645","OBJECT_NAME":"STARLINK-1094","APOAPSIS":"548.181","GP_ID":"191363028","EPHEMERIS_TYPE":"0","TLE_LINE1":"1 44941U 20001AD  21342.74942325  .00001045  00000-0  89025-4 0  9991","MEAN_ELEMENT_THEORY":"SGP4","CLASSIFICATION_TYPE":"U","DECAY_DATE":null,"PERIOD":"95.593","ECCENTRICITY":"0.00013690","REV_AT_EPOCH":"10621","SITE":"AFETR","TIME_SYSTEM":"UTC","NORAD_CAT_ID":"44941","RCS_SIZE":"LARGE","OBJECT_TYPE":"PAYLOAD","MEAN_MOTION_DOT":"0.00001045","OBJECT_ID":"2020-001AD","SEMIMAJOR_AXIS":"6925.368","RA_OF_ASC_NODE":"93.5496","COUNTRY_CODE":"US","BSTAR":"0.00008902500000","MEAN_MOTION_DDOT":"0.0000000000000","EPOCH":"2021-12-08T17:59:10.168800","PERIAPSIS":"546.285","TLE_LINE2":"2 44941  53.0550  93.5496 0001369  83.5500 276.5645 15.06393642106212","CENTER_NAME":"EARTH"},{"FILE":"3235972","INCLINATION":"53.0540","REF_FRAME":"TEME","LAUNCH_DATE":"2020-01-07","ELEMENT_SET_NO":"999","MEAN_ANOMALY":"275.0564","ARG_OF_PERICENTER":"85.0575","MEAN_MOTION":"15.06391237","APOAPSIS":"548.148","OBJECT_NAME":"STARLINK-1096","GP_ID":"191362778","MEAN_ELEMENT_THEORY":"SGP4","EPHEMERIS_TYPE":"0","TLE_LINE1":"1 44942U 20001AE  21342.60198614 -.00000742  00000-0 -30931-4 0  9998","PERIOD":"95.593","DECAY_DATE":null,"CLASSIFICATION_TYPE":"U","ECCENTRICITY":"0.00013110","SITE":"AFETR","REV_AT_EPOCH":"10619","RCS_SIZE":"LARGE","NORAD_CAT_ID":"44942","TIME_SYSTEM":"UTC","OBJECT_TYPE":"PAYLOAD","MEAN_MOTION_DOT":"-0.00000742","SEMIMAJOR_AXIS":"6925.375","OBJECT_ID":"2020-001AE","MEAN_MOTION_DDOT":"0.0000000000000","BSTAR":"-0.00003093100000","COUNTRY_CODE":"US","RA_OF_ASC_NODE":"94.2157","TLE_LINE2":"2 44942  53.0540  94.2157 0001311  85.0575 275.0564 15.06391237106199","PERIAPSIS":"546.332","EPOCH":"2021-12-08T14:26:51.602496","CENTER_NAME":"EARTH"},{"MEAN_ELEMENT_THEORY":"SGP4","TLE_LINE1":"1 44943U 20001AF  21342.77891454  .00000685  00000-0  64862-4 0  9993","EPHEMERIS_TYPE":"0","PERIOD":"95.593","DECAY_DATE":null,"CLASSIFICATION_TYPE":"U","ECCENTRICITY":"0.00012540","FILE":"3235972","REF_FRAME":"TEME","INCLINATION":"53.0544","ELEMENT_SET_NO":"999","LAUNCH_DATE":"2020-01-07","ARG_OF_PERICENTER":"91.0963","MEAN_ANOMALY":"269.0170","MEAN_MOTION":"15.06392418","APOAPSIS":"548.105","OBJECT_NAME":"STARLINK-1100","GP_ID":"191361526","BSTAR":"0.00006486200000","MEAN_MOTION_DDOT":"0.0000000000000","RA_OF_ASC_NODE":"93.4227","COUNTRY_CODE":"US","TLE_LINE2":"2 44943  53.0544  93.4227 0001254  91.0963 269.0170 15.06392418106218","EPOCH":"2021-12-08T18:41:38.216256","PERIAPSIS":"546.368","CENTER_NAME":"EARTH","SITE":"AFETR","REV_AT_EPOCH":"10621","RCS_SIZE":"LARGE","NORAD_CAT_ID":"44943","TIME_SYSTEM":"UTC","MEAN_MOTION_DOT":"0.00000685","OBJECT_TYPE":"PAYLOAD","SEMIMAJOR_AXIS":"6925.372","OBJECT_ID":"2020-001AF"},{"OBJECT_ID":"2020-001AG","SEMIMAJOR_AXIS":"6925.345","OBJECT_TYPE":"PAYLOAD","MEAN_MOTION_DOT":"-0.00002131","NORAD_CAT_ID":"44944","TIME_SYSTEM":"UTC","RCS_SIZE":"LARGE","REV_AT_EPOCH":"10622","SITE":"AFETR","CENTER_NAME":"EARTH","EPOCH":"2021-12-08T19:50:38.133600","PERIAPSIS":"546.296","TLE_LINE2":"2 44944  53.0546  93.2019 0001320  82.1567 277.9572 15.06401074106227","RA_OF_ASC_NODE":"93.2019","COUNTRY_CODE":"US","BSTAR":"-0.00012418000000","MEAN_MOTION_DDOT":"0.0000000000000","GP_ID":"191361776","OBJECT_NAME":"STARLINK-1108","APOAPSIS":"548.124","MEAN_MOTION":"15.06401074","ARG_OF_PERICENTER":"82.1567","MEAN_ANOMALY":"277.9572","ELEMENT_SET_NO":"999","LAUNCH_DATE":"2020-01-07","INCLINATION":"53.0546","FILE":"3235972","REF_FRAME":"TEME","ECCENTRICITY":"0.00013200","CLASSIFICATION_TYPE":"U","PERIOD":"95.592","DECAY_DATE":null,"EPHEMERIS_TYPE":"0","TLE_LINE1":"1 44944U 20001AG  21342.82683025 -.00002131  00000-0 -12418-3 0  9992","MEAN_ELEMENT_THEORY":"SGP4"},{"TLE_LINE2":"2 44945  53.0543  93.3646 0001128  86.9386 273.1732 15.06403084106217","EPOCH":"2021-12-08T18:57:32.505984","PERIAPSIS":"546.423","BSTAR":"0.00009531200000","MEAN_MOTION_DDOT":"0.0000000000000","RA_OF_ASC_NODE":"93.3646","COUNTRY_CODE":"US","CENTER_NAME":"EARTH","RCS_SIZE":"LARGE","TIME_SYSTEM":"UTC","NORAD_CAT_ID":"44945","SITE":"AFETR","REV_AT_EPOCH":"10621","SEMIMAJOR_AXIS":"6925.339","OBJECT_ID":"2020-001AH","OBJECT_TYPE":"PAYLOAD","MEAN_MOTION_DOT":"0.00001139","MEAN_ELEMENT_THEORY":"SGP4","TLE_LINE1":"1 44945U 20001AH  21342.78995956  .00001139  00000-0  95312-4 0  9997","EPHEMERIS_TYPE":"0","ECCENTRICITY":"0.00011280","PERIOD":"95.592","DECAY_DATE":null,"CLASSIFICATION_TYPE":"U","MEAN_ANOMALY":"273.1732","ARG_OF_PERICENTER":"86.9386","MEAN_MOTION":"15.06403084","FILE":"3235972","INCLINATION":"53.0543","REF_FRAME":"TEME","ELEMENT_SET_NO":"999","LAUNCH_DATE":"2020-01-07","GP_ID":"191362528","APOAPSIS":"547.985","OBJECT_NAME":"STARLINK-1109"}];
